IRIDIUM 39              
1 25042U 97069D   25170.54548665  .00000415  00000+0  10355-3 0  9998
2 25042  86.3926 210.1206 0015768 303.3278  56.6415 14.49222499449565
IRIDIUM 38              
1 25043U 97069E   25170.25627929  .00000302  00000+0  93224-4 0  9990
2 25043  86.3964 232.2844 0004270  92.4900 267.6787 14.38119804446257
IRIDIUM 42              
1 25077U 97077A   25170.47401745  .00000295  00000+0  94017-4 0  9998
2 25077  86.3965 238.3652 0003054  97.2939 262.8605 14.36354234441520
IRIDIUM 44              
1 25078U 97077B   25171.11705932  .00000294  00000+0  86508-4 0  9991
2 25078  86.3970 220.0151 0003416  60.2177 299.9361 14.40244574444157
IRIDIUM 45              
1 25104U 97082A   25171.07964415  .00011501  00000+0  41151-3 0  9992
2 25104  86.3584  46.4901 0114635 321.9498  37.3687 15.22519079452734
IRIDIUM 24              
1 25105U 97082B   25170.67011153  .00000333  00000+0  95177-4 0  9999
2 25105  86.3902  79.2486 0013604  72.5134 287.7552 14.42101374443571
IRIDIUM 51              
1 25262U 98018A   25170.76037319  .00021046  00000+0  46594-3 0  9997
2 25262  86.3836  54.5596 0083600 239.2832 120.0167 15.39924707447428
IRIDIUM 57              
1 25273U 98019B   25171.16851838  .00000283  00000+0  90842-4 0  9991
2 25273  86.3974 144.0131 0002385  87.4714 272.6755 14.35895285425422
